ORBCOMM FM37 [-]        
1 33064U 08031E   23307.32636083  .00002802  00000+0  43872-3 0  9992
2 33064  48.4408 266.9743 0006079   0.1903 153.6783 14.75337630826859
ORBCOMM FM40 [-]        
1 33065U 08031F   23307.17975008  .00003618  00000+0  54388-3 0  9999
2 33065  48.4428 258.6976 0007373   8.4082   5.4743 14.76422934826971
VESSELSAT 1 [-]         
1 37840U 11058C   23307.41460435  .00000443  00000+0  97692-4 0  9996
2 37840  19.9620  73.8666 0013703 158.1711 201.9279 14.11078251622847
ORBCOMM FM109 [+]       
1 40086U 14040A   23307.35644803  .00001371  00000+0  34574-3 0  9992
2 40086  47.0041 286.5480 0000977 117.1070 242.9914 14.56045101494879
ORBCOMM FM107 [+]       
1 40087U 14040B   23307.32202901  .00001500  00000+0  37478-3 0  9999
2 40087  47.0059 287.6458 0000912  32.5786 327.5155 14.56050416494860
ORBCOMM FM106 [-]       
1 40088U 14040C   23306.86854278  .00001405  00000+0  28534-3 0  9995
2 40088  47.0603 156.7278 0018480 202.0301 157.9796 14.66177014496467
ORBCOMM FM111 [-]       
1 40089U 14040D   23306.65610957  .00003683  00000+0  50048-3 0  9992
2 40089  47.0044  80.6958 0034414 247.8396 111.8844 14.80271866502279
ORBCOMM FM104 [-]       
1 40090U 14040E   23306.76002135  .00001028  00000+0  27705-3 0  9994
2 40090  47.0065 317.1276 0017037  17.9222 342.2260 14.54591649494313
